{
  "type": "FeatureCollection",
  "features": [
    {
      "type": "Feature",
      "properties": {
        "norad_id": 34754,
        "name": "COSMOS 2251 DEB",
        "group": "cosmos-2251-debris",
        "lat": 46.02411008157629,
        "lon": -142.08286439078196,
        "alt_km": 754.1021570165494,
        "timestamp": "2025-12-27T07:26:25.615638+00:00",
        "meta_object_name": "COSMOS 2251 DEB",
        "meta_object_id": "1993-036ZY",
        "meta_epoch": "2025-12-26T23:27:40.624128",
        "meta_mean_motion": 14.40501216,
        "meta_eccentricity": 0.00300583,
        "meta_inclination": 74.0287,
        "meta_ra_of_asc_node": 201.2656,
        "meta_arg_of_pericenter": 314.7192,
        "meta_mean_anomaly": 170.0704,
        "meta_ephemeris_type": 0,
        "meta_classification_type": "U",
        "meta_norad_cat_id": 34754,
        "meta_element_set_no": 999,
        "meta_rev_at_epoch": 88338,
        "meta_bstar": 0.00023278549,
        "meta_mean_motion_dot": 7.18e-06,
        "meta_mean_motion_ddot": 0,
        "tle_line1": "1 34754U 93036ZY  25360.97755352  .00000718  00000+0  23279-3 0  9994",
        "tle_line2": "2 34754  74.0287 201.2656 0030058 314.7192 170.0704 14.40501216883381"
      },
      "geometry": {
        "type": "Point",
        "coordinates": [
          -142.08286439078196,
          46.02411008157629
        ]
      }
    },
    {
      "type": "Feature",
      "properties": {
        "norad_id": 34755,
        "name": "COSMOS 2251 DEB",
        "group": "cosmos-2251-debris",
        "lat": 53.86373249417311,
        "lon": 63.34831599488752,
        "alt_km": 1350.7347510660838,
        "timestamp": "2025-12-27T07:26:25.615648+00:00",
        "meta_object_name": "COSMOS 2251 DEB",
        "meta_object_id": "1993-036ZZ",
        "meta_epoch": "2025-12-26T12:11:51.713088",
        "meta_mean_motion": 13.50581015,
        "meta_eccentricity": 0.0407843,
        "meta_inclination": 73.9253,
        "meta_ra_of_asc_node": 267.8945,
        "meta_arg_of_pericenter": 285.2929,
        "meta_mean_anomaly": 262.1182,
        "meta_ephemeris_type": 0,
        "meta_classification_type": "U",
        "meta_norad_cat_id": 34755,
        "meta_element_set_no": 999,
        "meta_rev_at_epoch": 82709,
        "meta_bstar": 0.00068246,
        "meta_mean_motion_dot": 7.11e-06,
        "meta_mean_motion_ddot": 0,
        "tle_line1": "1 34755U 93036ZZ  25360.50823742  .00000711  00000+0  68246-3 0  9999",
        "tle_line2": "2 34755  73.9253 267.8945 0407843 285.2929 262.1182 13.50581015827096"
      },
      "geometry": {
        "type": "Point",
        "coordinates": [
          63.34831599488752,
          53.86373249417311
        ]
      }
    },
    {
      "type": "Feature",
      "properties": {
        "norad_id": 34756,
        "name": "COSMOS 2251 DEB",
        "group": "cosmos-2251-debris",
        "lat": -1.856901386030063,
        "lon": -99.05747174080552,
        "alt_km": 1175.6567124454423,
        "timestamp": "2025-12-27T07:26:25.615658+00:00",
        "meta_object_name": "COSMOS 2251 DEB",
        "meta_object_id": "1993-036AAA",
        "meta_epoch": "2025-12-24T15:18:41.454720",
        "meta_mean_motion": 13.67272702,
        "meta_eccentricity": 0.0345926,
        "meta_inclination": 74.0032,
        "meta_ra_of_asc_node": 84.8024,
        "meta_arg_of_pericenter": 318.0621,
        "meta_mean_anomaly": 39.4462,
        "meta_ephemeris_type": 0,
        "meta_classification_type": "U",
        "meta_norad_cat_id": 34756,
        "meta_element_set_no": 999,
        "meta_rev_at_epoch": 83584,
        "meta_bstar": 0.0010747811,
        "meta_mean_motion_dot": 1.342e-05,
        "meta_mean_motion_ddot": 0,
        "tle_line1": "1 34756U 93036AAA 25358.63797980  .00001342  00000+0  10748-2 0  9999",
        "tle_line2": "2 34756  74.0032  84.8024 0345926 318.0621  39.4462 13.67272702835842"
      },
      "geometry": {
        "type": "Point",
        "coordinates": [
          -99.05747174080552,
          -1.856901386030063
        ]
      }
    },
    {
      "type": "Feature",
      "properties": {
        "norad_id": 34758,
        "name": "COSMOS 2251 DEB",
        "group": "cosmos-2251-debris",
        "lat": 0.33423634618583614,
        "lon": 95.95293095943218,
        "alt_km": 1268.12853214826,
        "timestamp": "2025-12-27T07:26:25.615669+00:00",
        "meta_object_name": "COSMOS 2251 DEB",
        "meta_object_id": "1993-036AAC",
        "meta_epoch": "2025-12-25T01:33:06.423552",
        "meta_mean_motion": 13.58115883,
        "meta_eccentricity": 0.03824027,
        "meta_inclination": 74.107,
        "meta_ra_of_asc_node": 279.661,
        "meta_arg_of_pericenter": 40.5031,
        "meta_mean_anomaly": 322.3879,
        "meta_ephemeris_type": 0,
        "meta_classification_type": "U",
        "meta_norad_cat_id": 34758,
        "meta_element_set_no": 999,
        "meta_rev_at_epoch": 83077,
        "meta_bstar": 0.0017795069,
        "meta_mean_motion_dot": 2.058e-05,
        "meta_mean_motion_ddot": 0,
        "tle_line1": "1 34758U 93036AAC 25359.06465768  .00002058  00000+0  17795-2 0  9999",
        "tle_line2": "2 34758  74.1070 279.6610 0382402  40.5031 322.3879 13.58115883830773"
      },
      "geometry": {
        "type": "Point",
        "coordinates": [
          95.95293095943218,
          0.33423634618583614
        ]
      }
    },
    {
      "type": "Feature",
      "properties": {
        "norad_id": 34760,
        "name": "COSMOS 2251 DEB",
        "group": "cosmos-2251-debris",
        "lat": 48.22404919334591,
        "lon": -64.98887818526659,
        "alt_km": 816.0041452369132,
        "timestamp": "2025-12-27T07:26:25.615680+00:00",
        "meta_object_name": "COSMOS 2251 DEB",
        "meta_object_id": "1993-036AAE",
        "meta_epoch": "2025-12-26T11:28:08.253120",
        "meta_mean_motion": 14.1960414,
        "meta_eccentricity": 0.009732,
        "meta_inclination": 74.0632,
        "meta_ra_of_asc_node": 277.842,
        "meta_arg_of_pericenter": 326.9633,
        "meta_mean_anomaly": 151.7947,
        "meta_ephemeris_type": 0,
        "meta_classification_type": "U",
        "meta_norad_cat_id": 34760,
        "meta_element_set_no": 999,
        "meta_rev_at_epoch": 86883,
        "meta_bstar": 0.00062411,
        "meta_mean_motion_dot": 1.356e-05,
        "meta_mean_motion_ddot": 0,
        "tle_line1": "1 34760U 93036AAE 25360.47787330  .00001356  00000+0  62411-3 0  9997",
        "tle_line2": "2 34760  74.0632 277.8420 0097320 326.9633 151.7947 14.19604140868834"
      },
      "geometry": {
        "type": "Point",
        "coordinates": [
          -64.98887818526659,
          48.22404919334591
        ]
      }
    },
    {
      "type": "Feature",
      "properties": {
        "norad_id": 34761,
        "name": "COSMOS 2251 DEB",
        "group": "cosmos-2251-debris",
        "lat": -36.765462748934716,
        "lon": 168.29696221029636,
        "alt_km": 793.1027407258798,
        "timestamp": "2025-12-27T07:26:25.615690+00:00",
        "meta_object_name": "COSMOS 2251 DEB",
        "meta_object_id": "1993-036AAF",
        "meta_epoch": "2025-12-24T04:58:02.700480",
        "meta_mean_motion": 14.38089541,
        "meta_eccentricity": 0.00370278,
        "meta_inclination": 74.0286,
        "meta_ra_of_asc_node": 341.6577,
        "meta_arg_of_pericenter": 12.6034,
        "meta_mean_anomaly": 347.6036,
        "meta_ephemeris_type": 0,
        "meta_classification_type": "U",
        "meta_norad_cat_id": 34761,
        "meta_element_set_no": 999,
        "meta_rev_at_epoch": 87814,
        "meta_bstar": 0.00063419722,
        "meta_mean_motion_dot": 1.911e-05,
        "meta_mean_motion_ddot": 0,
        "tle_line1": "1 34761U 93036AAF 25358.20697570  .00001911  00000+0  63420-3 0  9990",
        "tle_line2": "2 34761  74.0286 341.6577 0037027  12.6034 347.6036 14.38089541878148"
      },
      "geometry": {
        "type": "Point",
        "coordinates": [
          168.29696221029636,
          -36.765462748934716
        ]
      }
    },
    {
      "type": "Feature",
      "properties": {
        "norad_id": 34784,
        "name": "COSMOS 2251 DEB",
        "group": "cosmos-2251-debris",
        "lat": -20.944286782852068,
        "lon": 122.76868828143522,
        "alt_km": 701.3552809497642,
        "timestamp": "2025-12-27T07:26:25.615700+00:00",
        "meta_object_name": "COSMOS 2251 DEB",
        "meta_object_id": "1993-036AAM",
        "meta_epoch": "2025-12-26T05:52:17.900832",
        "meta_mean_motion": 14.60839983,
        "meta_eccentricity": 0.0049103,
        "meta_inclination": 74.0077,
        "meta_ra_of_asc_node": 298.5051,
        "meta_arg_of_pericenter": 103.7988,
        "meta_mean_anomaly": 256.8649,
        "meta_ephemeris_type": 0,
        "meta_classification_type": "U",
        "meta_norad_cat_id": 34784,
        "meta_element_set_no": 999,
        "meta_rev_at_epoch": 88732,
        "meta_bstar": 0.00052479,
        "meta_mean_motion_dot": 2.579e-05,
        "meta_mean_motion_ddot": 0,
        "tle_line1": "1 34784U 93036AAM 25360.24465163  .00002579  00000+0  52479-3 0  9996",
        "tle_line2": "2 34784  74.0077 298.5051 0049103 103.7988 256.8649 14.60839983887325"
      },
      "geometry": {
        "type": "Point",
        "coordinates": [
          122.76868828143522,
          -20.944286782852068
        ]
      }
    }
  ]
}